1 37886U 71114E   18150.38177830  .00000024  00000-0  16383-4 0  9999
2 37886  74.0208 171.3722 0023931 147.7767 212.4269 14.38357040788177
1 37887U 71114F   18212.85029241 +.00000012 +00000-0 +12281-4 0  9993
2 37887 074.0169 029.2206 0013786 032.1814 328.0180 14.40312998843094
1 37888U 66040AT  18211.48947345 +.00000472 +00000-0 +94531-3 0  9995
2 37888 100.6397 049.5342 0048404 225.2888 164.2904 13.40401911449449
1 37889U 66040AU  18212.48457249  .00000575  00000-0  11233-2 0  9997
2 37889 100.6036  35.9088 0055041 169.3418 218.4883 13.40754163425822
1 37890U 66040AV  18213.32929486  .00000533  00000-0  10666-2 0  9993
2 37890 100.5071  15.9025 0051764 195.0731 282.7072 13.39568909335826
1 37891U 66040AW  18212.68624248 +.00000667 +00000-0 +13413-2 0  9991
2 37891 100.5688 015.0952 0067485 240.1950 119.2453 13.37815361347963
1 37892U 66040AX  18212.93589002 +.00000470 +00000-0 +95573-3 0  9998
2 37892 100.5142 012.6828 0053407 196.9428 316.3969 13.39209987976032
1 37893U 66040AY  18212.43905331  .00000490  00000-0  96532-3 0  9999
2 37893 100.5238  19.7884 0063648 186.1919 203.4464 13.40761824419553
1 37894U 99025EMT 18212.51184249  .00001651  00000-0  39887-3 0  9995
2 37894  99.0154  49.0477 0106827  61.8665 299.3273 14.51223534418860
1 37895U 99025EMU 18212.91279867 +.00000068 +00000-0 +12507-3 0  9992
2 37895 099.2066 255.8280 0332863 094.9875 268.9339 13.45867918185199
1 37896U 99025EMV 18212.22136163  .00004729  00000-0  18038-3 0  9991
2 37896  98.5762 125.8880 0139055 145.1761 215.8668 15.18676103464831
1 37897U 99025EMW 14224.27620123 +.00001729 +00000-0 +87439-3 0  9998
2 37897 098.8992 244.6642 0019329 285.3010 084.7434 14.17394333328047
1 37898U 99025EMX 18166.83377004  .00000186  00000-0  14673-3 0  9993
2 37898  98.3165 172.4698 0126572  99.8014 261.7471 13.98024446509698
1 37899U 99025EMY 18211.03210603  .00000674  00000-0  69249-3 0  9999
2 37899  98.8078 235.2818 0224162 287.1793  70.4927 13.69121310426739
1 37900U 99025EMZ 18210.47493736  .00000395  00000-0  31007-3 0  9990
2 37900 102.3238  96.8378 0249584 223.2199 135.1432 13.87167362450249
1 37901U 99025ENA 18205.05329504  .00002969  00000-0  44569-3 0  9996
2 37901  97.9231 298.6976 0130447 145.7941 215.1755 14.69649827459448
1 37902U 99025ENB 18210.71786728 +.00000355 +00000-0 +48305-3 0  9990
2 37902 098.6851 025.7323 0343330 334.3471 024.0971 13.43236267415283
1 37903U 99025ENC 18209.27033088 +.00000912 +00000-0 +53319-3 0  9994
2 37903 098.1794 016.4833 0335050 312.9252 044.4234 13.85900937535433
1 37904U 99025END 18212.34581891  .00000808  00000-0  27748-3 0  9998
2 37904  98.2504  48.8616 0081719  99.7772 261.2655 14.36684923425434
1 37905U 99025ENE 18212.31575136  .00000126  00000-0  13414-3 0  9999
2 37905  99.3853 244.7573 0137929  98.4859 263.1956 13.87186143394188
1 37906U 99025ENF 18198.13182009  .00000069  00000-0  10459-3 0  9998
2 37906  99.5389 158.7427 0165396 259.2391 163.9590 13.77654708463920
1 37907U 99025ENG 18199.90153034  .00000692  00000-0  45697-3 0  9995
2 37907  99.1502 248.4517 0079988 182.3805 177.6991 14.03591701451947
1 37908U 99025ENH 18212.85634110 +.00000138 +00000-0 +70769-4 0  9999
2 37908 099.1360 077.7633 0083741 038.5393 322.1726 14.29030554255732
1 37909U 99025ENJ 18208.51181900 +.00000646 +00000-0 +61043-3 0  9990
2 37909 098.9403 309.5829 0207505 196.5517 162.8791 13.75436118446379
1 37910U 99025ENK 11342.39379115 +.00001655 +00000-0 +80677-3 0  9992
2 37910 099.0321 038.8017 0052026 234.5672 125.0257 14.18838118153810
1 37911U 99025ENL 18211.53103924  .00000381  00000-0  33480-3 0  9999
2 37911  99.4471 238.6240 0159215 135.1066 226.3094 13.86089503393236
1 37912U 99025ENM 18212.26421451 +.00000634 +00000-0 +48199-3 0  9993
2 37912 099.1238 140.0562 0113454 249.0920 267.1063 13.94550048396482
1 37913U 99025ENN 18212.89966693 +.00001298 +00000-0 +29268-3 0  9998
2 37913 098.9033 010.6287 0141554 008.1477 352.1968 14.52291785406859
1 37914U 99025ENP 18213.03463896  .00000411  00000-0  27097-3 0  9997
2 37914  98.9876 145.7232 0077580 317.0932  42.4200 14.05976297502828
1 37915U 99025ENQ 18211.90575797 +.00000487 +00000-0 +39673-3 0  9992
2 37915 098.3144 099.6700 0220104 150.5247 210.8533 13.83000503494776
1 37917U 99025ENS 18185.03400221  .00000143  00000-0  11294-3 0  9995
2 37917  99.0045 268.1241 0052539 112.4801 248.1941 14.05791415506019
1 37918U 99025ENT 18211.26240610  .00000175  00000-0  90415-4 0  9993
2 37918  99.1266  24.8309 0063060 147.2434 213.2679 14.26415540655670
1 37919U 99025ENU 18193.41592039  .00000139  00000-0  83954-4 0  9995
2 37919  99.1780   2.4635 0051509 209.5251 150.3013 14.21775542439398
1 37920U 99025ENV 18212.93970087 +.00000567 +00000-0 +34428-3 0  9995
2 37920 099.0181 253.0605 0064610 284.1173 198.3841 14.09413560261203
1 37921U 99025ENW 18213.24222438  .00000018  00000-0  47267-4 0  9998
2 37921  99.3384 229.6422 0083971 216.6729 142.8665 13.93798834451982
1 37922U 99025ENX 18202.33985387  .00000602  00000-0  36460-3 0  9997
2 37922  99.1282 232.5052 0072094  63.0297 297.8211 14.09087302490955
1 37924U 99025ENZ 18211.30743271 +.00000498 +00000-0 +26703-3 0  9992
2 37924 098.9417 251.7840 0053219 215.5420 144.2205 14.16942471261737
1 37925U 99025EPA 18213.08982480  .00000367  00000-0  10824-3 0  9999
2 37925  99.0931 167.2292 0095513 170.3688 189.9362 14.47577770429309
1 37926U 99025EPB 18212.66434453 +.00000452 +00000-0 +27063-3 0  9993
2 37926 098.9304 268.5790 0061561 323.6431 205.8769 14.11197086362174
1 37927U 99025EPC 18212.36363201 +.00000755 +00000-0 +34229-3 0  9991
2 37927 098.8662 264.2343 0011168 264.8767 095.1137 14.24935801265332
1 37928U 99025EPD 18212.52456493 +.00000196 +00000-0 +92176-4 0  9991
2 37928 098.8424 330.0187 0081083 318.2934 041.2083 14.29179942426927
1 37929U 99025EPE 18213.16582094  .00000651  00000-0  10471-3 0  9993
2 37929  98.9799 184.0343 0168975 299.5401  58.9045 14.66901582425242
1 37956U 93036BPF 18211.72615396 +.00000678 +00000-0 +12865-3 0  9999
2 37956 074.0468 326.8836 0047141 030.8445 329.5477 14.65609408404949
1 37957U 93036BPG 18212.00811768  .00002505  00000-0  34183-3 0  9991
2 37957  74.0215 347.5465 0013447 345.3709  14.7076 14.79160433406649
1 37958U 93036BPH 18211.74318005  .00006268  00000-0  43951-3 0  9991
2 37958  74.0065 236.0430 0009876 286.6817  73.3288 15.05362784373827
1 37959U 93036BPJ 18212.05370105 +.00000268 +00000-0 +80502-4 0  9994
2 37959 074.0131 071.4195 0071073 145.3794 005.1902 14.46075416412102
1 37960U 93036BPK 18210.89619712 +.00000247 +00000-0 +13342-3 0  9990
2 37960 074.0600 182.5195 0269940 119.6243 243.2074 14.00091328396627
1 37961U 93036BPL 18212.41550075 +.00000273 +00000-0 +87837-4 0  9997
2 37961 074.0480 121.3838 0054161 155.9174 204.4534 14.43058246411450
1 37962U 93036BPM 18189.66557811  .00002134  00000-0  23038-3 0  9993
2 37962  74.0696 310.0692 0070963 301.1164  58.3067 14.87245772479582
1 37963U 93036BPN 12117.50944718 +.00001395 +00000-0 +82235-3 0  9990
2 37963 074.0682 148.6214 0159873 322.0744 036.9446 14.02667412105436
1 37966U 93036BPR 18212.81450858  .00000626  00000-0  15319-3 0  9991
2 37966  73.9996  15.9806 0024262 163.9205 196.2733 14.54502974461594
1 37967U 93036BPS 18212.65649740 +.00000206 +00000-0 +86602-4 0  9992
2 37967 074.0230 331.6181 0193066 025.1483 335.8911 14.22310343263566
1 37968U 93036BPT 18212.55668912  .00000253  00000-0  39867-4 0  9997
2 37968  74.0101 174.1033 0133651 252.3736 106.2804 14.72877195467441
1 37969U 93036BPU 18212.30862685  .00000854  00000-0  41739-3 0  9991
2 37969  73.9882  82.4840 0169257 163.7854 196.8799 14.12238184432724
1 37971U 93036BPW 18212.51119701  .00000879  00000-0  35600-3 0  9998
2 37971  74.0031 283.7740 0095528 324.8050  34.6811 14.26813926454666
1 37973U 93036BPY 18200.39305172 +.00000213 +00000-0 +85804-4 0  9996
2 37973 074.0350 224.3010 0043640 241.0281 118.6492 14.33441099261937
1 37974U 93036BPZ 18212.81710442 +.00001473 +00000-0 +65591-4 0  9997
2 37974 074.0139 255.5816 0083195 288.3751 070.8411 15.19615934210477
1 37975U 93036BQA 18212.51086994  .00000709  00000-0  23179-3 0  9999
2 37975  74.0210 271.8618 0184058 190.7435 168.9763 14.31229047474856
